NORAD_CAT_ID,OBJECT_NAME,OBJECT_TYPE,EPOCH,MEAN_MOTION,ECCENTRICITY,INCLINATION,RA_OF_ASC_NODE,ARG_OF_PERICENTER,MEAN_ANOMALY,BSTAR,MEAN_MOTION_DOT,MEAN_MOTION_DDOT,TLE_LINE0,TLE_LINE1,TLE_LINE2,SEMIMAJOR_AXIS,PERIOD,APOGEE,PERIGEE,DECAYED
49751.0,STARLINK-3229,PAYLOAD,2022-02-05 06:00:00,15.32143339,0.0001431999999999,53.2176,14.552,69.6082,216.3404,-0.020276,-0.00596986,0.0,0 STARLINK-3229,1 49751U 21115AD  22036.25001157 -.00596986  00000-0 -20276-1 0  9993,2 49751  53.2176  14.5520 0001432  69.6082 216.3404 15.32143339 11174,6847.556,93.986,470.401,468.44,0.0
49751.0,STARLINK-3229,PAYLOAD,2022-02-05 14:00:01,15.31723957,0.0001324,53.2177,13.005999999999998,58.0838,267.2062,-0.022753,-0.00656654,0.0,0 STARLINK-3229,1 49751U 21115AD  22036.58334491 -.00656654  00000-0 -22753-1 0  9990,2 49751  53.2177  13.0060 0001324  58.0838 267.2062 15.31723957  3613,6848.806,94.012,471.577,469.764,0.0
49751.0,STARLINK-3229,PAYLOAD,2022-02-05 22:00:01,15.31258609,0.0001274999999999,53.2176,11.4674,62.2182,301.9389,-0.023087,-0.0065663,0.0,0 STARLINK-3229,1 49751U 21115AD  22036.91668981 -.00656630  00000-0 -23087-1 0  9996,2 49751  53.2176  11.4674 0001275  62.2182 301.9389 15.31258609 11275,6850.193,94.04,472.931,471.185,0.0
49751.0,STARLINK-3229,PAYLOAD,2022-02-06 14:00:01,15.30327457,0.0001268,53.2175,8.3822,63.7774,16.3132,-0.023918,-0.0066047,0.0,0 STARLINK-3229,1 49751U 21115AD  22037.58335648 -.00660470  00000-0 -23918-1 0  9991,2 49751  53.2175   8.3822 0001268  63.7774  16.3132 15.30327457  3630,6852.972,94.098,475.705,473.968,0.0
49751.0,STARLINK-3229,PAYLOAD,2022-02-06 20:00:01,15.29975204,0.0001383,53.2175,7.2249,52.0102,325.9155,-0.024045,-0.00657012,0.0,0 STARLINK-3229,1 49751U 21115AD  22037.83334491 -.00657012  00000-0 -24045-1 0  9994,2 49751  53.2175   7.2249 0001383  52.0102 325.9155 15.29975204 11411,6854.023,94.119,476.836,474.94,0.0
49751.0,STARLINK-3229,PAYLOAD,2022-02-06 22:00:00,15.29860282,0.000152,53.2177,6.8399,51.31100000000001,65.8427,-0.024201,-0.00658799,0.0,0 STARLINK-3229,1 49751U 21115AD  22037.91667824 -.00658799  00000-0 -24201-1 0  9999,2 49751  53.2177   6.8399 0001520  51.3110  65.8427 15.29860282  3634,6854.3669999999975,94.126,477.273,475.19,0.0
49751.0,STARLINK-3229,PAYLOAD,2022-02-07 14:00:01,15.28928338,0.0001469,53.2175,3.7612,61.5194,128.2042,-0.025013,-0.00661332,0.0,0 STARLINK-3229,1 49751U 21115AD  22038.58334491 -.00661332  00000-0 -25013-1 0  9993,2 49751  53.2175   3.7612 0001469  61.5194 128.2042 15.28928338  3647,6857.151999999999,94.184,480.024,478.009,0.0
49751.0,STARLINK-3229,PAYLOAD,2022-02-07 22:00:00,15.28460997,0.0001558,53.2177,2.2227,56.9539,168.2144,-0.025282,-0.00659061,0.0,0 STARLINK-3229,1 49751U 21115AD  22038.91667824 -.00659061  00000-0 -25282-1 0  9993,2 49751  53.2177   2.2227 0001558  56.9539 168.2144 15.28460997 11575,6858.549,94.212,481.483,479.346,0.0
49751.0,STARLINK-3229,PAYLOAD,2022-02-08 14:00:01,15.27494689,0.0001409999999999,53.2175,359.14,54.0655,240.3348,-0.024317,-0.00618248,0.0,0 STARLINK-3229,1 49751U 21115AD  22039.58334491 -.00618248  00000-0 -24317-1 0  9998,2 49751  53.2175 359.1400 0001410  54.0655 240.3348 15.27494689  3613,6861.441999999999,94.272,484.274,482.339,0.0
49751.0,STARLINK-3229,PAYLOAD,2022-02-08 22:00:01,15.27028889,0.0001294,53.2176,357.60400000000016,59.6331,268.5913,-0.024518,-0.00614781,0.0,0 STARLINK-3229,1 49751U 21115AD  22039.91668981 -.00614781  00000-0 -24518-1 0  9990,2 49751  53.2176 357.6040 0001294  59.6331 268.5913 15.27028889 11736,6862.837,94.301,485.59,483.814,0.0
49751.0,STARLINK-3229,PAYLOAD,2022-02-09 13:50:37,15.27787693,0.0001909,53.217,354.4907,323.8266,36.2605,-0.0056772,-0.00153306,0.0,0 STARLINK-3229,1 49751U 21115AD  22040.57682416 -.00153306  00000-0 -56772-2 0  9992,2 49751  53.2170 354.4907 0001909 323.8266  36.2605 15.27787693 10724,6860.564,94.254,483.739,481.12,0.0
49751.0,STARLINK-3229,PAYLOAD,2022-02-09 14:00:01,15.2612824,0.0001326,53.2176,354.5491,55.5976,338.3831,-0.027216,-0.00660496,0.0,0 STARLINK-3229,1 49751U 21115AD  22040.58334491 -.00660496  00000-0 -27216-1 0  9993,2 49751  53.2176 354.5491 0001326  55.5976 338.3831 15.26128240 11835,6865.5369999999975,94.356,488.312,486.491,0.0
49751.0,STARLINK-3229,PAYLOAD,2022-02-10 13:26:51,15.25877866,0.0002269,53.2165,349.9765,87.875,272.2509,-0.0076536,-0.00193882,0.0,0 STARLINK-3229,1 49751U 21115AD  22041.56031643 -.00193882  00000-0 -76536-2 0  9995,2 49751  53.2165 349.9765 0002269  87.8750 272.2509 15.25877866 10875,6866.288000000001,94.372,489.711,486.595,0.0
49751.0,STARLINK-3229,PAYLOAD,2022-02-10 14:00:01,15.24727683,0.0001441999999999,53.2176,349.9579,55.9625,72.6418,-0.028304,-0.00658579,0.0,0 STARLINK-3229,1 49751U 21115AD  22041.58335648 -.00658579  00000-0 -28304-1 0  9997,2 49751  53.2176 349.9579 0001442  55.9625  72.6418 15.24727683 11983,6869.74,94.443,492.596,490.615,0.0
49751.0,STARLINK-3229,PAYLOAD,2022-02-10 19:44:24,15.25570595,7.020000000000001e-05,53.2164,348.7704,228.465,131.6289,-0.0082062999999999,-0.00205589,0.0,0 STARLINK-3229,1 49751U 21115AD  22041.82250936 -.00205589  00000-0 -82063-2 0  9992,2 49751  53.2164 348.7704 0000702 228.4650 131.6289 15.25570595 12027,6867.21,94.391,489.557,488.593,0.0
49751.0,STARLINK-3229,PAYLOAD,2022-02-10 22:00:00,15.242606599999998,0.0001657,53.2178,348.4296,49.9639,108.9756,-0.028662,-0.00657702,0.0,0 STARLINK-3229,1 49751U 21115AD  22041.91667824 -.00657702  00000-0 -28662-1 0  9992,2 49751  53.2178 348.4296 0001657  49.9639 108.9756 15.24260660  3628,6871.143,94.472,494.147,491.87,0.0
49751.0,STARLINK-3229,PAYLOAD,2022-02-11 05:11:02,15.24964411,0.0001448,53.216,346.9669,76.226,283.89,-0.0084866,-0.00208688,0.0,0 STARLINK-3229,1 49751U 21115AD  22042.21600562 -.00208688  00000-0 -84866-2 0  9996,2 49751  53.2160 346.9669 0001448  76.2260 283.8900 15.24964411 12086,6869.029,94.428,491.889,489.9,0.0
49751.0,STARLINK-3229,PAYLOAD,2022-02-11 13:02:45,15.24484627,6.2e-05,53.2161,345.4645,97.6719,262.435,-0.010566,-0.00254443,0.0,0 STARLINK-3229,1 49751U 21115AD  22042.54358198 -.00254443  00000-0 -10566-1 0  9992,2 49751  53.2161 345.4645 0000620  97.6719 262.4350 15.24484627 12136,6870.47,94.458,492.761,491.909,0.0
49751.0,STARLINK-3229,PAYLOAD,2022-02-11 22:00:01,15.22861165,0.0001591,53.2177,343.8517,54.4018,192.4331,-0.029892,-0.00657801,0.0,0 STARLINK-3229,1 49751U 21115AD  22042.91668981 -.00657801  00000-0 -29892-1 0  9994,2 49751  53.2177 343.8517 0001591  54.4018 192.4331 15.22861165 12184,6875.352,94.559,498.311,496.124,0.0
49751.0,STARLINK-3229,PAYLOAD,2022-02-12 04:47:57,15.23331778,4.84e-05,53.2143,342.4562,18.4108,341.6908,-0.013469,-0.00310916,0.0,0 STARLINK-3229,1 49751U 21115AD  22043.19996921 -.00310916  00000-0 -13469-1 0  9999,2 49751  53.2143 342.4562 0000484  18.4108 341.6908 15.23331778 12239,6873.936,94.53,496.134,495.469,0.0
49751.0,STARLINK-3229,PAYLOAD,2022-02-12 12:40:39,15.2293689,0.0002064,53.2138,340.9534,60.4136,299.7068,-0.01309,-0.00299175,0.0,0 STARLINK-3229,1 49751U 21115AD  22043.52823225 -.00299175  00000-0 -13090-1 0  9995,2 49751  53.2138 340.9534 0002064  60.4136 299.7068 15.22936890 11176,6875.125,94.554,498.409,495.571,0.0
49751.0,STARLINK-3229,PAYLOAD,2022-02-12 22:00:00,15.21462403,0.0001440999999999,53.2178,339.2835,56.305,273.2525,-0.031234,-0.00659274,0.0,0 STARLINK-3229,1 49751U 21115AD  22043.91667824 -.00659274  00000-0 -31234-1 0  9999,2 49751  53.2178 339.2835 0001441  56.3050 273.2525 15.21462403 12340,6879.566,94.646,502.422,500.439,0.0
49751.0,STARLINK-3229,PAYLOAD,2022-02-13 14:00:01,15.20527895,0.0001233,53.2176,336.2432,66.4604,315.4857,-0.032017,-0.00657561,0.0,0 STARLINK-3229,1 49751U 21115AD  22044.58334491 -.00657561  00000-0 -32017-1 0  9991,2 49751  53.2176 336.2432 0001233  66.4604 315.4857 15.20527895  3640,6882.384,94.704,505.098,503.401,0.0
49751.0,STARLINK-3229,PAYLOAD,2022-02-14 06:00:00,15.19592662,0.0001366,53.2175,333.2093,58.9353,13.1556,-0.032705,-0.00653837,0.0,0 STARLINK-3229,1 49751U 21115AD  22045.25001157 -.00653837  00000-0 -32705-1 0  9992,2 49751  53.2175 333.2093 0001366  58.9353  13.1556 15.19592662 12542,6885.208000000001,94.762,508.013,506.132,0.0
49751.0,STARLINK-3229,PAYLOAD,2022-02-14 14:00:01,15.19127501,0.0001325,53.2176,331.6913,62.3156,34.0076,-0.033288,-0.00663456,0.0,0 STARLINK-3229,1 49751U 21115AD  22045.58334491 -.00663456  00000-0 -33288-1 0  9993,2 49751  53.2176 331.6913 0001325  62.3156  34.0076 15.19127501  3647,6886.613,94.791,509.391,507.566,0.0
49751.0,STARLINK-3229,PAYLOAD,2022-02-14 20:00:01,15.187785,0.000135,53.2178,330.555,59.2695,324.8588,-0.033669,-0.00664223,0.0,0 STARLINK-3229,1 49751U 21115AD  22045.83334491 -.00664223  00000-0 -33669-1 0  9997,2 49751  53.2178 330.5550 0001350  59.2695 324.8588 15.18778500  3621,6887.668000000002,94.813,510.463,508.603,0.0
49751.0,STARLINK-3229,PAYLOAD,2022-02-15 06:00:00,15.18191488,0.0001568,53.2167,328.6471,58.4878,84.626,-0.033876,-0.00657485,0.0,0 STARLINK-3229,1 49751U 21115AD  22046.25001157 -.00657485  00000-0 -33876-1 0  9996,2 49751  53.2167 328.6471 0001568  58.4878  84.6260 15.18191488 12693,6889.443,94.85,512.389,510.228,0.0
49751.0,STARLINK-3229,PAYLOAD,2022-02-15 14:00:01,15.17726925,0.0001460999999999,53.2169,327.1324,54.3518,111.3128,-0.034574,-0.00661782,0.0,0 STARLINK-3229,1 49751U 21115AD  22046.58334491 -.00661782  00000-0 -34574-1 0  9993,2 49751  53.2169 327.1324 0001461  54.3518 111.3128 15.17726925  3616,6890.849,94.879,513.721,511.707,0.0
49751.0,STARLINK-3229,PAYLOAD,2022-02-15 22:00:01,15.17261686,0.0001581,53.2177,325.6381,57.1228,130.5833,-0.035184,-0.00664324,0.0,0 STARLINK-3229,1 49751U 21115AD  22046.91668981 -.00664324  00000-0 -35184-1 0  9997,2 49751  53.2177 325.6381 0001581  57.1228 130.5833 15.17261686  3639,6892.2580000000025,94.908,515.212,513.033,0.0
